[{"OBJECT_NAME":"STARLINK-30321","OBJECT_ID":"2023-124S","EPOCH":"2026-03-09T15:23:13.167168","MEAN_MOTION":15.30168647,"ECCENTRICITY":0.0001288,"INCLINATION":53.1605,"RA_OF_ASC_NODE":206.8257,"ARG_OF_PERICENTER":63.9534,"MEAN_ANOMALY":296.1599,"EPHEMERIS_TYPE":0,"CLASSIFICATION_TYPE":"U","NORAD_CAT_ID":57679,"ELEMENT_SET_NO":999,"REV_AT_EPOCH":14356,"BSTAR":-5.4516e-5,"MEAN_MOTION_DOT":-1.972e-5,"MEAN_MOTION_DDOT":0},{"OBJECT_NAME":"OBJECT C","OBJECT_ID":"2024-092C","EPOCH":"2026-03-09T23:10:26.961312","MEAN_MOTION":15.27308901,"ECCENTRICITY":0.00097974,"INCLINATION":97.6475,"RA_OF_ASC_NODE":197.1606,"ARG_OF_PERICENTER":169.1353,"MEAN_ANOMALY":191.0098,"EPHEMERIS_TYPE":0,"CLASSIFICATION_TYPE":"U","NORAD_CAT_ID":59775,"ELEMENT_SET_NO":999,"REV_AT_EPOCH":10042,"BSTAR":0.00057925748,"MEAN_MOTION_DOT":0.00015454,"MEAN_MOTION_DDOT":0}]
